{
  "type": "FeatureCollection",
  "features": [
    {
      "type": "Feature",
      "properties": {
        "norad_id": 66906,
        "name": "1998-067XS",
        "group": "last-30-days",
        "lat": 1.227801766970287,
        "lon": 68.62389604763304,
        "alt_km": 412.97860688783567,
        "timestamp": "2025-12-27T19:21:57.545126+00:00",
        "meta_object_name": "1998-067XS",
        "meta_object_id": "1998-067XS",
        "meta_epoch": "2025-12-27T11:37:45.622848",
        "meta_mean_motion": 15.51372826,
        "meta_eccentricity": 0.0002659,
        "meta_inclination": 51.6319,
        "meta_ra_of_asc_node": 69.2523,
        "meta_arg_of_pericenter": 278.8538,
        "meta_mean_anomaly": 81.215,
        "meta_ephemeris_type": 0,
        "meta_classification_type": "U",
        "meta_norad_cat_id": 66906,
        "meta_element_set_no": 999,
        "meta_rev_at_epoch": 390,
        "meta_bstar": 0.00048079,
        "meta_mean_motion_dot": 0.00028453,
        "meta_mean_motion_ddot": 0,
        "tle_line1": "1 66906U 98067XS  25361.48455582  .00028453  00000+0  48079-3 0  9997",
        "tle_line2": "2 66906  51.6319  69.2523 0002659 278.8538  81.2150 15.51372826  3903"
      },
      "geometry": {
        "type": "Point",
        "coordinates": [
          68.62389604763304,
          1.227801766970287
        ]
      }
    },
    {
      "type": "Feature",
      "properties": {
        "norad_id": 66907,
        "name": "1998-067XT",
        "group": "last-30-days",
        "lat": 51.501010752727986,
        "lon": 162.5675003448564,
        "alt_km": 401.6643293820762,
        "timestamp": "2025-12-27T19:21:57.545137+00:00",
        "meta_object_name": "1998-067XT",
        "meta_object_id": "1998-067XT",
        "meta_epoch": "2025-12-27T09:42:09.227808",
        "meta_mean_motion": 15.53307188,
        "meta_eccentricity": 0.0003783,
        "meta_inclination": 51.632,
        "meta_ra_of_asc_node": 69.4664,
        "meta_arg_of_pericenter": 315.9002,
        "meta_mean_anomaly": 44.1686,
        "meta_ephemeris_type": 0,
        "meta_classification_type": "U",
        "meta_norad_cat_id": 66907,
        "meta_element_set_no": 999,
        "meta_rev_at_epoch": 389,
        "meta_bstar": 0.0010591,
        "meta_mean_motion_dot": 0.0006817,
        "meta_mean_motion_ddot": 0,
        "tle_line1": "1 66907U 98067XT  25361.40427347  .00068170  00000+0  10591-2 0  9995",
        "tle_line2": "2 66907  51.6320  69.4664 0003783 315.9002  44.1686 15.53307188  3893"
      },
      "geometry": {
        "type": "Point",
        "coordinates": [
          162.5675003448564,
          51.501010752727986
        ]
      }
    },
    {
      "type": "Feature",
      "properties": {
        "norad_id": 66908,
        "name": "1998-067XU",
        "group": "last-30-days",
        "lat": 50.57692583912491,
        "lon": 172.93221759463674,
        "alt_km": 402.13379564358365,
        "timestamp": "2025-12-27T19:21:57.545148+00:00",
        "meta_object_name": "1998-067XU",
        "meta_object_id": "1998-067XU",
        "meta_epoch": "2025-12-27T11:13:06.748608",
        "meta_mean_motion": 15.53347401,
        "meta_eccentricity": 0.0004039,
        "meta_inclination": 51.6324,
        "meta_ra_of_asc_node": 69.1374,
        "meta_arg_of_pericenter": 312.9995,
        "meta_mean_anomaly": 47.0657,
        "meta_ephemeris_type": 0,
        "meta_classification_type": "U",
        "meta_norad_cat_id": 66908,
        "meta_element_set_no": 999,
        "meta_rev_at_epoch": 390,
        "meta_bstar": 0.00092502,
        "meta_mean_motion_dot": 0.00059503,
        "meta_mean_motion_ddot": 0,
        "tle_line1": "1 66908U 98067XU  25361.46743922  .00059503  00000+0  92502-3 0  9995",
        "tle_line2": "2 66908  51.6324  69.1374 0004039 312.9995  47.0657 15.53347401  3900"
      },
      "geometry": {
        "type": "Point",
        "coordinates": [
          172.93221759463674,
          50.57692583912491
        ]
      }
    },
    {
      "type": "Feature",
      "properties": {
        "norad_id": 66909,
        "name": "SILVERSAT",
        "group": "last-30-days",
        "lat": 46.796274061659965,
        "lon": -170.09808545354477,
        "alt_km": 401.76489881060115,
        "timestamp": "2025-12-27T19:21:57.545157+00:00",
        "meta_object_name": "SILVERSAT",
        "meta_object_id": "1998-067XV",
        "meta_epoch": "2025-12-27T11:10:11.042112",
        "meta_mean_motion": 15.53674289,
        "meta_eccentricity": 0.0003945,
        "meta_inclination": 51.6313,
        "meta_ra_of_asc_node": 69.1235,
        "meta_arg_of_pericenter": 319.4612,
        "meta_mean_anomaly": 40.6084,
        "meta_ephemeris_type": 0,
        "meta_classification_type": "U",
        "meta_norad_cat_id": 66909,
        "meta_element_set_no": 999,
        "meta_rev_at_epoch": 390,
        "meta_bstar": 0.0011635,
        "meta_mean_motion_dot": 0.00076025,
        "meta_mean_motion_ddot": 0,
        "tle_line1": "1 66909U 98067XV  25361.46540558  .00076025  00000+0  11635-2 0  9991",
        "tle_line2": "2 66909  51.6313  69.1235 0003945 319.4612  40.6084 15.53674289  3908"
      },
      "geometry": {
        "type": "Point",
        "coordinates": [
          -170.09808545354477,
          46.796274061659965
        ]
      }
    },
    {
      "type": "Feature",
      "properties": {
        "norad_id": 66910,
        "name": "1998-067XW",
        "group": "last-30-days",
        "lat": 42.83196349016971,
        "lon": -159.86127841525052,
        "alt_km": 402.8592714381193,
        "timestamp": "2025-12-27T19:21:57.545166+00:00",
        "meta_object_name": "1998-067XW",
        "meta_object_id": "1998-067XW",
        "meta_epoch": "2025-12-27T11:08:00.617856",
        "meta_mean_motion": 15.53557016,
        "meta_eccentricity": 0.0003698,
        "meta_inclination": 51.6304,
        "meta_ra_of_asc_node": 69.1129,
        "meta_arg_of_pericenter": 290.9058,
        "meta_mean_anomaly": 69.1536,
        "meta_ephemeris_type": 0,
        "meta_classification_type": "U",
        "meta_norad_cat_id": 66910,
        "meta_element_set_no": 999,
        "meta_rev_at_epoch": 390,
        "meta_bstar": 0.0010574,
        "meta_mean_motion_dot": 0.00068686,
        "meta_mean_motion_ddot": 0,
        "tle_line1": "1 66910U 98067XW  25361.46389604  .00068686  00000+0  10574-2 0  9991",
        "tle_line2": "2 66910  51.6304  69.1129 0003698 290.9058  69.1536 15.53557016  3900"
      },
      "geometry": {
        "type": "Point",
        "coordinates": [
          -159.86127841525052,
          42.83196349016971
        ]
      }
    },
    {
      "type": "Feature",
      "properties": {
        "norad_id": 66911,
        "name": "1998-067XX",
        "group": "last-30-days",
        "lat": 25.49703914793084,
        "lon": -134.85231623374298,
        "alt_km": 403.5026337165673,
        "timestamp": "2025-12-27T19:21:57.545177+00:00",
        "meta_object_name": "1998-067XX",
        "meta_object_id": "1998-067XX",
        "meta_epoch": "2025-12-27T09:28:42.532608",
        "meta_mean_motion": 15.54137727,
        "meta_eccentricity": 0.0003462,
        "meta_inclination": 51.6308,
        "meta_ra_of_asc_node": 69.4034,
        "meta_arg_of_pericenter": 299.6786,
        "meta_mean_anomaly": 60.3859,
        "meta_ephemeris_type": 0,
        "meta_classification_type": "U",
        "meta_norad_cat_id": 66911,
        "meta_element_set_no": 999,
        "meta_rev_at_epoch": 388,
        "meta_bstar": 0.0012426,
        "meta_mean_motion_dot": 0.0008268,
        "meta_mean_motion_ddot": 0,
        "tle_line1": "1 66911U 98067XX  25361.39493672  .00082680  00000+0  12426-2 0  9993",
        "tle_line2": "2 66911  51.6308  69.4034 0003462 299.6786  60.3859 15.54137727  3888"
      },
      "geometry": {
        "type": "Point",
        "coordinates": [
          -134.85231623374298,
          25.49703914793084
        ]
      }
    },
    {
      "type": "Feature",
      "properties": {
        "norad_id": 66912,
        "name": "1998-067XY",
        "group": "last-30-days",
        "lat": 42.771042614096466,
        "lon": 114.65930125829831,
        "alt_km": 404.18651772380144,
        "timestamp": "2025-12-27T19:21:57.545186+00:00",
        "meta_object_name": "1998-067XY",
        "meta_object_id": "1998-067XY",
        "meta_epoch": "2025-12-27T05:12:20.649888",
        "meta_mean_motion": 15.52574078,
        "meta_eccentricity": 0.0003872,
        "meta_inclination": 51.6314,
        "meta_ra_of_asc_node": 70.4653,
        "meta_arg_of_pericenter": 305.7746,
        "meta_mean_anomaly": 54.2884,
        "meta_ephemeris_type": 0,
        "meta_classification_type": "U",
        "meta_norad_cat_id": 66912,
        "meta_element_set_no": 999,
        "meta_rev_at_epoch": 385,
        "meta_bstar": 0.0008769,
        "meta_mean_motion_dot": 0.00054785,
        "meta_mean_motion_ddot": 0,
        "tle_line1": "1 66912U 98067XY  25361.21690567  .00054785  00000+0  87690-3 0  9998",
        "tle_line2": "2 66912  51.6314  70.4653 0003872 305.7746  54.2884 15.52574078  3854"
      },
      "geometry": {
        "type": "Point",
        "coordinates": [
          114.65930125829831,
          42.771042614096466
        ]
      }
    }
  ]
}